$$SOE
2459580.500000000, A.D. 2022-Jan-01 00:00:00.0000, -1.529314174660849E+08, 2.518590675963003E+08, -5.312535773690100E+07,
2459587.500000000, A.D. 2022-Jan-08 00:00:00.0000, -1.624323397770446E+08, 2.471050133002934E+08, -5.392184570090520E+07,
2459594.500000000, A.D. 2022-Jan-15 00:00:00.0000, -1.716429909796113E+08, 2.419092482467374E+08, -5.462194970562072E+07,
2459601.500000000, A.D. 2022-Jan-22 00:00:00.0000, -1.805499909781533E+08, 2.362854188545916E+08, -5.522540211032512E+07,
2459608.500000000, A.D. 2022-Jan-29 00:00:00.0000, -1.891402593811214E+08, 2.302469987016863E+08, -5.573195734266868E+07,
2459615.500000000, A.D. 2022-Feb-05 00:00:00.0000, -1.974009621196932E+08, 2.238073208009253E+08, -5.614138774223753E+07,
2459622.500000000, A.D. 2022-Feb-12 00:00:00.0000, -2.053194598365115E+08, 2.169796103063460E+08, -5.645348042562875E+07,
2459629.500000000, A.D. 2022-Feb-19 00:00:00.0000, -2.128832589490948E+08, 2.097770200645090E+08, -5.666803480411739E+07,
2459636.500000000, A.D. 2022-Feb-26 00:00:00.0000, -2.200799663268835E+08, 2.022126684161719E+08, -5.678486066604967E+07,
2459643.500000000, A.D. 2022-Mar-05 00:00:00.0000, -2.268972470833260E+08, 1.942996788053043E+08, -5.680377686999182E+07,
2459650.500000000, A.D. 2022-Mar-12 00:00:00.0000, -2.333227849653109E+08, 1.860512213418667E+08, -5.672461066201019E+07,
2459657.500000000, A.D. 2022-Mar-19 00:00:00.0000, -2.393442450196785E+08, 1.774805565984345E+08, -5.654719761747759E+07,
2459664.500000000, A.D. 2022-Mar-26 00:00:00.0000, -2.449492383134049E+08, 1.686010819284099E+08, -5.627138221618035E+07,
2459671.500000000, A.D. 2022-Apr-02 00:00:00.0000, -2.501252884885491E+08, 1.594263805886029E+08, -5.589701907962181E+07,
2459678.500000000, A.D. 2022-Apr-09 00:00:00.0000, -2.548597997804833E+08, 1.499702740587357E+08, -5.542397492659117E+07,
2459685.500000000, A.D. 2022-Apr-16 00:00:00.0000, -2.591400260973592E+08, 1.402468786528594E+08, -5.485213127242333E+07,
2459692.500000000, A.D. 2022-Apr-23 00:00:00.0000, -2.629530424462698E+08, 1.302706680057806E+08, -5.418138772992586E+07,
2459699.500000000, A.D. 2022-Apr-30 00:00:00.0000, -2.662857206649168E+08, 1.200565397562925E+08, -5.341166600792992E+07,
2459706.500000000, A.D. 2022-May-07 00:00:00.0000, -2.691247065545284E+08, 1.096198850987541E+08, -5.254291515268740E+07,
2459713.500000000, A.D. 2022-May-14 00:00:00.0000, -2.714563972569891E+08, 9.897666495483805E+07, -5.157511802867759E+07,
2459720.500000000, A.D. 2022-May-21 00:00:00.0000, -2.732669212553866E+08, 8.814349431388600E+07, -5.050829893692146E+07,
2459727.500000000, A.D. 2022-May-28 00:00:00.0000, -2.745421219597154E+08, 7.713773467789906E+07, -4.934253258826032E+07,
2459734.500000000, A.D. 2022-Jun-04 00:00:00.0000, -2.752675452257170E+08, 6.597759529991585E+07, -4.807795469715866E+07,
2459741.500000000, A.D. 2022-Jun-11 00:00:00.0000, -2.754284314650564E+08, 5.468224432529926E+07, -4.671477446090522E+07,
2459748.500000000, A.D. 2022-Jun-18 00:00:00.0000, -2.750097133338640E+08, 4.327193107135347E+07, -4.525328922516343E+07,
2459755.500000000, A.D. 2022-Jun-25 00:00:00.0000, -2.739960202683487E+08, 3.176812075570472E+07, -4.369390169455972E+07,
2459762.500000000, A.D. 2022-Jul-02 00:00:00.0000, -2.723716913644846E+08, 2.019364307388017E+07, -4.203714012267204E+07,
2459769.500000000, A.D. 2022-Jul-09 00:00:00.0000, -2.701207982501090E+08, 8.572856386384984E+06, -4.028368199281036E+07,
2459776.500000000, A.D. 2022-Jul-16 00:00:00.0000, -2.672271805423084E+08, -3.068169716876000E+06, -3.843438167077873E+07,
2459783.500000000, A.D. 2022-Jul-23 00:00:00.0000, -2.636744992404785E+08, -1.470145164145260E+07, -3.649030249492984E+07,
2459790.500000000, A.D. 2022-Jul-30 00:00:00.0000, -2.594463118836970E+08, -2.629687037863144E+07, -3.445275437406893E+07,
2459797.500000000, A.D. 2022-Aug-06 00:00:00.0000, -2.545261707099505E+08, -3.782192908250713E+07, -3.232333808663245E+07,
2459804.500000000, A.D. 2022-Aug-13 00:00:00.0000, -2.488977505764928E+08, -4.924148531702179E+07, -3.010399703026736E+07,
2459811.500000000, A.D. 2022-Aug-20 00:00:00.0000, -2.425450154810399E+08, -6.051745728163303E+07, -2.779707751742951E+07,
2459818.500000000, A.D. 2022-Aug-27 00:00:00.0000, -2.354524325153287E+08, -7.160850417896751E+07, -2.540539904720908E+07,
2459825.500000000, A.D. 2022-Sep-03 00:00:00.0000, -2.276052438284182E+08, -8.246968125989860E+07, -2.293233610870441E+07,
2459832.500000000, A.D. 2022-Sep-10 00:00:00.0000, -2.189898095568846E+08, -9.305207146646081E+07, -2.038191317802957E+07,
2459839.500000000, A.D. 2022-Sep-17 00:00:00.0000, -2.095940372705342E+08, -1.033023978838475E+08, -1.775891465630317E+07,
2459846.500000000, A.D. 2022-Sep-24 00:00:00.0000, -1.994079162451300E+08, -1.131626245331729E+08, -1.506901150820551E+07,
2459853.500000000, A.D. 2022-Oct-01 00:00:00.0000, -1.884241776150993E+08, -1.225695576261516E+08, -1.231890623340394E+07,
2459860.500000000, A.D. 2022-Oct-08 00:00:00.0000, -1.766391040776203E+08, -1.314544652466735E+08, -9.516497395918667E+06,
2459867.500000000, A.D. 2022-Oct-15 00:00:00.0000, -1.640535163490229E+08, -1.397427413994156E+08, -6.671064017529629E+06,
2459874.500000000, A.D. 2022-Oct-22 00:00:00.0000, -1.506739656712068E+08, -1.473536546983458E+08, -3.793468986876972E+06,
2459881.500000000, A.D. 2022-Oct-29 00:00:00.0000, -1.365141553407144E+08, -1.542002376006547E+08, -8.963790993238240E+05,
2459888.500000000, A.D. 2022-Nov-05 00:00:00.0000, -1.215966087735928E+08, -1.601893849613736E+08, 2.005504229991928E+06,
2459895.500000000, A.D. 2022-Nov-12 00:00:00.0000, -1.059545931797969E+08, -1.652222534731683E+08, 4.895214278686427E+06,
2459902.500000000, A.D. 2022-Nov-19 00:00:00.0000, -8.963428431140973E+07, -1.691950788034355E+08, 7.753304904920779E+06,
2459909.500000000, A.D. 2022-Nov-26 00:00:00.0000, -7.269712077053814E+07, -1.720005484789093E+08, 1.055767737636106E+07,
2459916.500000000, A.D. 2022-Dec-03 00:00:00.0000, -5.522224350072290E+07, -1.735298834431504E+08, 1.328348190579201E+07,
2459923.500000000, A.D. 2022-Dec-10 00:00:00.0000, -3.730884468097722E+07, -1.736757807356389E+08, 1.590313791672897E+07,
2459930.500000000, A.D. 2022-Dec-17 00:00:00.0000, -1.907816182879752E+07, -1.723363402268521E+08, 1.838652644606384E+07,
2459937.500000000, A.D. 2022-Dec-24 00:00:00.0000, -6.747561849115995E+05, -1.694200243496482E+08, 2.070141317554028E+07,
2459944.500000000, A.D. 2022-Dec-31 00:00:00.0000, 1.773337032346902E+07, -1.648515674775430E+08, 2.281415662024915E+07,
2459951.500000000, A.D. 2023-Jan-07 00:00:00.0000, 3.595630380399252E+07, -1.585785555567986E+08, 2.469073770656610E+07,
2459958.500000000, A.D. 2023-Jan-14 00:00:00.0000, 5.378582471676076E+07, -1.505781534624628E+08, 2.629810988650502E+07,
2459965.500000000, A.D. 2023-Jan-21 00:00:00.0000, 7.100134478180206E+07, -1.408632141872374E+08, 2.760581199599223E+07,
2459972.500000000, A.D. 2023-Jan-28 00:00:00.0000, 8.737810528183976E+07, -1.294868277401027E+08, 2.858771722081661E+07,
2459979.500000000, A.D. 2023-Feb-04 00:00:00.0000, 1.026971252506948E+08, -1.165443578756722E+08, 2.922372768198217E+07,
2459986.500000000, A.D. 2023-Feb-11 00:00:00.0000, 1.167559345276269E+08, -1.021722487708170E+08, 2.950118673388711E+07,
2459993.500000000, A.D. 2023-Feb-18 00:00:00.0000, 1.293788074581065E+08, -8.654335321374983E+07, 2.941579180156686E+07,
2460000.500000000, A.D. 2023-Feb-25 00:00:00.0000, 1.404251586420944E+08, -6.985914301610406E+07, 2.897185752629744E+07,
2460007.500000000, A.D. 2023-Mar-04 00:00:00.0000, 1.497950295904999E+08, -5.233973884388798E+07, 2.818188868496482E+07,
2460014.500000000, A.D. 2023-Mar-11 00:00:00.0000, 1.574311211809869E+08, -3.421305978389774E+07, 2.706554334655762E+07,
2460021.500000000, A.D. 2023-Mar-18 00:00:00.0000, 1.633174489281980E+08, -1.570443924166450E+07, 2.564816275765926E+07,
2460028.500000000, A.D. 2023-Mar-25 00:00:00.0000, 1.674752299109223E+08, 2.972199262925916E+06, 2.395909056984079E+07,
2460035.500000000, A.D. 2023-Apr-01 00:00:00.0000, 1.699569225832578E+08, 2.162094826443210E+07, 2.202999593826842E+07,
2460042.500000000, A.D. 2023-Apr-08 00:00:00.0000, 1.708394014268959E+08, 4.006811269673494E+07, 1.989336708336031E+07,
2460049.500000000, A.D. 2023-Apr-15 00:00:00.0000, 1.702171113102318E+08, 5.816417799329060E+07, 1.758127611647552E+07,
2460056.500000000, A.D. 2023-Apr-22 00:00:00.0000, 1.681958101133682E+08, 7.578395937655595E+07, 1.512445216059908E+07,
2460063.500000000, A.D. 2023-Apr-29 00:00:00.0000, 1.648872510772583E+08, 9.282543383195551E+07, 1.255165203300029E+07,
2460070.500000000, A.D. 2023-May-06 00:00:00.0000, 1.604049335971757E+08, 1.092077364727191E+08, 9.889288835973322E+06,
2460077.500000000, A.D. 2023-May-13 00:00:00.0000, 1.548608973416142E+08, 1.248687210488478E+08, 7.161265785355300E+06,
2460084.500000000, A.D. 2023-May-20 00:00:00.0000, 1.483634444801918E+08, 1.397623841542094E+08, 4.388961613262132E+06,
2460091.500000000, A.D. 2023-May-27 00:00:00.0000, 1.410156339296840E+08, 1.538563563783295E+08, 1.591319871523112E+06,
2460098.500000000, A.D. 2023-Jun-03 00:00:00.0000, 1.329143848005315E+08, 1.671295833567544E+08, -1.214996613703661E+06,
2460105.500000000, A.D. 2023-Jun-10 00:00:00.0000, 1.241500394341956E+08, 1.795702594013216E+08, -4.015415567723662E+06,
2460112.500000000, A.D. 2023-Jun-17 00:00:00.0000, 1.148062589227433E+08, 1.911740348682196E+08, -6.797250463854432E+06,
2460119.500000000, A.D. 2023-Jun-24 00:00:00.0000, 1.049601490250851E+08, 2.019424922858830E+08, -9.549495368732221E+06,
2460126.500000000, A.D. 2023-Jul-01 00:00:00.0000, 9.468253765736899E+07, 2.118818720514405E+08, -1.226262842143224E+07,
2460133.500000000, A.D. 2023-Jul-08 00:00:00.0000, 8.403834328974745E+07, 2.210020212152020E+08, -1.492842895179002E+07,
2460140.500000000, A.D. 2023-Jul-15 00:00:00.0000, 7.308699024805646E+07, 2.293155329485513E+08, -1.753981091521703E+07,
2460147.500000000, A.D. 2023-Jul-22 00:00:00.0000, 6.188284449746414E+07, 2.368370469031287E+08, -2.009067386083107E+07,
$$EOE